OPS 6582 (TRANSIT 5B-5) 
1 00965U 64083D   22348.86416226  .00000061  00000+0  72274-4 0  9997
2 00965  90.0286 196.0209 0042807  62.8830 308.2247 13.56797280869986
OSCAR 7 (AO-7)          
1 07530U 74089B   22348.86031580 -.00000033  00000+0  79179-4 0  9996
2 07530 101.9284 329.4447 0012443  56.6035  58.1507 12.53659246200072
UOSAT 2 (UO-11)         
1 14781U 84021B   22348.77189665  .00001191  00000+0  14894-3 0  9994
2 14781  97.6370 328.2090 0009891  88.5912 271.6436 14.84032720 66786
NOAA 9                  
1 15427U 84123A   22348.70010177  .00000146  00000+0  97137-4 0  9990
2 15427  99.0694 324.1225 0015191  18.2428 154.8482 14.16254786962125
LUSAT (LO-19)           
1 20442U 90005G   22348.65301883  .00000187  00000+0  84915-4 0  9995
2 20442  98.8203 316.4966 0011856   5.3883 354.7425 14.33123606718912
ITAMSAT (IO-26)         
1 22826U 93061D   22348.85120237  .00000108  00000+0  58969-4 0  9995
2 22826  98.8620  23.3991 0008213 227.6463 132.4024 14.30569112524207
RADIO ROSTO (RS-15)     
1 23439U 94085A   22348.88126245 -.00000039  00000+0  10000-3 0  9998
2 23439  64.8129 213.7857 0166747 241.8566 116.5412 11.27572889151837
JAS-2 (FO-29)           
1 24278U 96046B   22348.70543713  .00000015  00000+0  49729-4 0  9997
2 24278  98.5141 347.5671 0350382 175.3880 185.0633 13.53125700299989
NOAA 15                 
1 25338U 98030A   22348.79508044  .00000153  00000+0  81833-4 0  9992
2 25338  98.6270  15.8229 0011223 128.6188 231.5999 14.26207673278727
TECHSAT 1B (GO-32)      
1 25397U 98043D   22348.82595007  .00000100  00000+0  63708-4 0  9993
2 25397  98.8434 299.9717 0000848   2.6446 357.4736 14.23794686269316
ISS (ZARYA)             
1 25544U 98067A   22348.98970079  .00009427  00000+0  17325-3 0  9990
2 25544  51.6421 160.9211 0004039 162.8721 309.4879 15.49948609373226
ORSTED                  
1 25635U 99008B   22348.77971230  .00000500  00000+0  12583-3 0  9998
2 25635  96.4412 171.3266 0137027 326.0940  33.1554 14.48623342256381
PHASE 3D (AO-40)        
1 26609U 00072B   22348.51119545 -.00000039  00000+0  00000+0 0  9993
2 26609   5.4532 223.6501 7964385  95.2194 349.1467  1.25588663101566
PCSAT (NO-44)           
1 26931U 01043C   22348.59685067  .00000181  00000+0  10080-3 0  9995
2 26931  67.0516 313.3946 0005228 272.8937  87.1566 14.30775905107172
SAUDISAT 1C (SO-50)     
1 27607U 02058C   22348.85302427  .00001511  00000+0  22541-3 0  9991
2 27607  64.5542 109.7223 0080785 260.2494  98.9479 14.76479280 75005
CUTE-1 (CO-55)          
1 27844U 03031E   22348.77449802  .00000314  00000+0  16010-3 0  9990
2 27844  98.6793 353.7564 0008940 303.3343  56.6978 14.22558574  9511
CUBESAT XI-IV (CO-57)   
1 27848U 03031J   22348.51298896  .00000267  00000+0  14035-3 0  9993
2 27848  98.6834 353.9761 0009009 320.3101  39.7416 14.22100543  9259
MOZHAYETS 4 (RS-22)     
1 27939U 03042A   22348.88173468  .00001046  00000+0  19260-3 0  9994
2 27939  98.2160 129.8727 0012556   4.5456 355.5872 14.67665065 27502
INMARSAT 4-F1           
1 28628U 05009A   22348.59146615 -.00000242  00000+0  00000+0 0  9993
2 28628   3.7499  36.8569 0002992 233.4890 169.3178  1.00271327 64826
NOAA 18                 
1 28654U 05018A   22348.80193485  .00000181  00000+0  12151-3 0  9998
2 28654  98.9318  58.9348 0014425 178.1924 181.9302 14.12821631905445
CUBESAT XI-V            
1 28895U 05043F   22348.61872477  .00001310  00000+0  25466-3 0  9995
2 28895  98.1296 117.5246 0015345 295.7042  64.2576 14.64723513914013
METOP-A                 
1 29499U 06044A   22348.86078976  .00001569  00000+0  21413-3 0  9991
2 29499  98.4290  39.0403 0197132 161.8534 317.7603 14.67666417837134
CARTOSAT-2 (IRS-P7)     
1 29710U 07001B   22348.60125697  .00032807  00000+0  68796-3 0  9990
2 29710  97.8769 105.4375 0133339 142.7357 218.3230 15.36263965863825
FALCONSAT-3             
1 30776U 07006E   22348.75762967  .00205932  00000+0  10248-2 0  9991
2 30776  35.4236 142.8266 0007224  21.2537 338.8502 15.80315044877802
CAPE-1                  
1 31130U 07012P   22348.75105916  .00001119  00000+0  24184-3 0  9994
2 31130  98.2890 288.2427 0095806  94.4723 266.7428 14.57472615831342
CARTOSAT-2A             
1 32783U 08021A   22348.89458381  .00000908  00000+0  13082-3 0  9992
2 32783  97.9428  47.0746 0011580 307.9784  52.0353 14.78666884789689
CUTE-1.7+APD II (CO-65) 
1 32785U 08021C   22348.75284212  .00002618  00000+0  27423-3 0  9993
2 32785  97.6828 314.2074 0012750   3.6129 356.5179 14.90374273793335
COMPASS-1               
1 32787U 08021E   22348.58687025  .00005171  00000+0  44951-3 0  9997
2 32787  97.5832 324.7718 0009991 263.8614  96.1470 14.97365966794994
AAUSAT-II               
1 32788U 08021F   22348.69444920  .00007217  00000+0  59510-3 0  9995
2 32788  97.5522 328.0013 0008850 224.7378 135.3132 14.99291921795423
DELFI-C3 (DO-64)        
1 32789U 08021G   22348.61505643  .00019609  00000+0  93845-3 0  9995
2 32789  97.3250   8.8199 0010902  60.6137 299.6185 15.18950994799227
SEEDS II (CO-66)        
1 32791U 08021J   22348.44236428  .00003992  00000+0  38086-3 0  9995
2 32791  97.6348 319.2257 0011651 316.1648  43.8646 14.93825733794054
YUBILEINY (RS-30)       
1 32953U 08025A   22348.73979638  .00000024  00000+0  10000-3 0  9997
2 32953  82.5047  71.8197 0019004 224.2528 135.7037 12.43116005660733
FENGYUN 3A              
1 32958U 08026A   22348.72930790  .00000134  00000+0  84503-4 0  9990
2 32958  98.5299 304.2168 0007971 216.6763 143.3869 14.18770113753787
PRISM (HITOMI)          
1 33493U 09002B   22348.71078354  .00006193  00000+0  47929-3 0  9999
2 33493  98.2495 345.9925 0015335 308.9476  51.0379 15.01776210756016
STARS (KUKAI)           
1 33498U 09002G   22348.66862339  .00002250  00000+0  30030-3 0  9997
2 33498  98.1498 243.5658 0011547  36.1821 324.0170 14.80575267748090
KKS-1 (KISEKI)          
1 33499U 09002H   22348.82099609  .00001085  00000+0  16400-3 0  9998
2 33499  98.1934 233.6211 0010246  96.5356 263.7020 14.76328455746854
NOAA 19                 
1 33591U 09005A   22348.89475348  .00000175  00000+0  11949-3 0  9991
2 33591  99.1272  26.6434 0014487  44.3720 315.8609 14.12650986713928
SWISSCUBE               
1 35932U 09051B   22348.58070577  .00000919  00000+0  21469-3 0  9998
2 35932  98.5432 209.3511 0006785 207.5007 152.5832 14.57127498702365
BEESAT-1                
1 35933U 09051C   22348.60418059  .00000793  00000+0  18668-3 0  9990
2 35933  98.5369 210.8704 0004835 219.2047 140.8801 14.57111089702404
ITUPSAT1                
1 35935U 09051E   22348.87014586  .00000735  00000+0  17732-3 0  9995
2 35935  98.5470 211.1494 0007107 225.1253 134.9368 14.56202606702136
XIWANG-1 (HOPE-1)       
1 36122U 09072B   22348.62694158  .00000006  00000+0  12827-3 0  9990
2 36122 100.2112 313.5620 0006918 289.2666  70.7699 13.16375169624514
CARTOSAT-2B             
1 36795U 10035A   22348.72930682  .00000786  00000+0  11411-3 0  9996
2 36795  97.9383  46.9357 0014175  25.9996 334.1923 14.78676827670704
TISAT 1                 
1 36799U 10035E   22348.83283830  .00004378  00000+0  41713-3 0  9997
2 36799  98.1589 206.2880 0010449 217.4678 142.5814 14.93899688674686
FENGYUN 3B              
1 37214U 10059A   22348.96933737  .00000060  00000+0  55598-4 0  9999
2 37214  99.0915 358.1525 0021765 204.0472 155.9678 14.14278762626479
JUGNU                   
1 37839U 11058B   22348.78634375  .00000419  00000+0  80886-4 0  9994
2 37839  19.9593 161.6236 0018872 345.3253  45.1740 14.12841966577679
SRMSAT                  
1 37841U 11058D   22348.07200882  .00000419  00000+0  84845-4 0  9990
2 37841  19.9714 249.1604 0011976 157.3532 332.2881 14.10802275576636
M-CUBED & EXP-1 PRIME   
1 37855U 11061F   22348.57701735  .00015771  00000+0  62910-3 0  9992
2 37855 101.7134 203.8409 0142190 241.2448 117.4424 15.16482594608490
HORYU-2                 
1 38340U 12025D   22348.49521270  .00001960  00000+0  28416-3 0  9996
2 38340  98.1831  69.5145 0011415  17.6922 342.4683 14.77194066558811
METOP-B                 
1 38771U 12049A   22348.91308538  .00000105  00000+0  67801-4 0  9999
2 38771  98.7069  46.1204 0000838 133.4114  39.3512 14.21484493531372
SARAL                   
1 39086U 13009A   22348.86422507  .00000099  00000+0  53126-4 0  9990
2 39086  98.5449 171.8536 0002057  95.4484 264.6934 14.32054294512305
AAUSAT 3                
1 39087U 13009B   22348.77779534  .00000646  00000+0  23493-3 0  9997
2 39087  98.3849 183.7249 0013133  87.9294 272.3404 14.36368173513467
STRAND-1                
1 39090U 13009E   22348.77959606  .00000282  00000+0  11313-3 0  9995
2 39090  98.3916 182.1435 0010143  93.7641 266.4705 14.35385506513269
BRITE-AUSTRIA           
1 39091U 13009F   22348.76792556  .00000193  00000+0  82049-4 0  9990
2 39091  98.3938 181.3301 0011601  99.9324 260.3172 14.35340577513296
UNIBRITE                
1 39092U 13009G   22348.80579638  .00000189  00000+0  81035-4 0  9999
2 39092  98.3974 181.1639 0010524  95.6695 264.5691 14.35211794513252
SOMP                    
1 39134U 13015E   22348.82049994  .00024021  00000+0  69208-3 0  9990
2 39134  64.8577 187.4293 0029491 253.7385 106.0505 15.35282558534475
BEESAT-3                
1 39135U 13015F   22348.76750207  .00016348  00000+0  57956-3 0  9990
2 39135  64.8633 228.6688 0035026 255.7291 103.9950 15.28661868534055
BEESAT-2                
1 39136U 13015G   22348.75292061  .00016136  00000+0  60214-3 0  9995
2 39136  64.8722 238.0948 0025138 288.6050  71.2351 15.27270208533885
NEE-01 PEGASO           
1 39151U 13018B   22348.54695206  .00001826  00000+0  23938-3 0  9992
2 39151  98.0010  93.7507 0017281  35.4134 324.8222 14.81477465520343
CUBEBUG-1 (CAPITAN BETO)
1 39153U 13018D   22348.72730751  .00002282  00000+0  29187-3 0  9998
2 39153  98.0256  99.0804 0016897  29.4782 330.7380 14.82278141520454
